IRIDIUM 106             
1 41917U 17003A   23230.75396671  .00000368  00000+0  12449-3 0  9996
2 41917  86.4031 160.4186 0002595  82.2313 277.9177 14.34216431345081
IRIDIUM 103             
1 41918U 17003B   23230.81104549  .00000349  00000+0  11770-3 0  9990
2 41918  86.4030 160.2979 0002433  92.2231 267.9244 14.34217419345126
IRIDIUM 109             
1 41919U 17003C   23230.53831248  .00000352  00000+0  11848-3 0  9993
2 41919  86.4033 160.4540 0002086  88.8793 271.2642 14.34217241345060
IRIDIUM 102             
1 41920U 17003D   23230.36706270  .00000332  00000+0  11145-3 0  9990
2 41920  86.4031 160.4709 0002199  86.1369 274.0078 14.34220130345102
IRIDIUM 105             
1 41921U 17003E   23230.26793826  .00000133  00000+0  40404-4 0  9993
2 41921  86.3996 128.9682 0002219  86.2305 273.9144 14.34205163346949
IRIDIUM 104             
1 41922U 17003F   23230.17044275  .00000406  00000+0  13780-3 0  9990
2 41922  86.4032 160.5800 0002375  87.8347 272.3120 14.34217725345068
IRIDIUM 114             
1 41923U 17003G   23230.80470036  .00000330  00000+0  11072-3 0  9997
2 41923  86.4032 160.3023 0002469  79.3276 280.8198 14.34218787345153
IRIDIUM 108             
1 41924U 17003H   23230.27484417 -.00000384  00000+0 -14421-3 0  9999
2 41924  86.3988 128.9097 0002425  82.4925 277.6546 14.34217575346934
